NORAD_CAT_ID,OBJECT_NAME,OBJECT_TYPE,EPOCH,MEAN_MOTION,ECCENTRICITY,INCLINATION,RA_OF_ASC_NODE,ARG_OF_PERICENTER,MEAN_ANOMALY,BSTAR,MEAN_MOTION_DOT,MEAN_MOTION_DDOT,TLE_LINE0,TLE_LINE1,TLE_LINE2,SEMIMAJOR_AXIS,PERIOD,APOGEE,PERIGEE,DECAYED
55643.0,STARLINK-5483,PAYLOAD,2023-02-22 16:00:00,15.94637014,0.0037804,69.9999,136.783,163.6725,236.8847,-0.0026617,-0.01088818,0.00036327,0 STARLINK-5483,1 55643U 23021R   23053.66667824 -.01088818  36327-3 -26617-2 0  9993,2 55643  69.9999 136.7830 0037804 163.6725 236.8847 15.94637014  1308,6667.463,90.303,314.534,264.122,0.0
55643.0,STARLINK-5483,PAYLOAD,2023-02-22 22:00:00,15.94138271,0.0034403,69.9995,136.0539,163.8014,231.2251,-0.0029096,-0.0114352,0.00039563,0 STARLINK-5483,1 55643U 23021R   23053.91667824 -.01143520  39563-3 -29096-2 0  9992,2 55643  69.9995 136.0539 0034403 163.8014 231.2251 15.94138271  1307,6668.854,90.331,313.661,267.776,0.0
55643.0,STARLINK-5483,PAYLOAD,2023-02-23 08:00:01,15.93226461,0.0029972,69.9999,134.841,165.6294,99.1562,-0.002973,-0.01097303,0.00036323,0 STARLINK-5483,1 55643U 23021R   23054.33334491 -.01097303  36323-3 -29730-2 0  9993,2 55643  69.9999 134.8410 0029972 165.6294  99.1562 15.93226461  1405,6671.398,90.383,313.258,273.267,0.0
55643.0,STARLINK-5483,PAYLOAD,2023-02-23 14:00:01,15.92705305,0.0027549,69.9998,134.1133,166.5364,91.4562,-0.0031148,-0.01110604,0.00036945,0 STARLINK-5483,1 55643U 23021R   23054.58334491 -.01110604  36945-3 -31148-2 0  9996,2 55643  69.9998 134.1133 0027549 166.5364  91.4562 15.92705305  1307,6672.853,90.412,313.101,276.335,0.0
55643.0,STARLINK-5483,PAYLOAD,2023-02-23 16:00:00,15.92523563,0.0026681,70.0,133.8713,167.2796,208.3468,-0.003129,-0.01102587,0.00036388,0 STARLINK-5483,1 55643U 23021R   23054.66667824 -.01102587  36388-3 -31290-2 0  9994,2 55643  70.0000 133.8713 0026681 167.2796 208.3468 15.92523563  1451,6673.361,90.423,313.031,277.42,0.0
55643.0,STARLINK-5483,PAYLOAD,2023-02-23 22:00:00,15.92027609,0.0023827,69.9995,133.1444,168.3383,199.8493,-0.0034101,-0.01162229,0.00039906,0 STARLINK-5483,1 55643U 23021R   23054.91667824 -.01162229  39906-3 -34101-2 0  9994,2 55643  69.9995 133.1444 0023827 168.3383 199.8493 15.92027609  1304,6674.747,90.451,312.515,280.708,0.0
55643.0,STARLINK-5483,PAYLOAD,2023-02-24 02:00:01,15.916295,0.0022656,69.9999,132.6608,169.4904,73.5024,-0.0032479,-0.01082122,0.00034837,0 STARLINK-5483,1 55643U 23021R   23055.08334491 -.01082122  34837-3 -32479-2 0  9991,2 55643  69.9999 132.6608 0022656 169.4904  73.5024 15.91629500  1523,6675.86,90.473,312.849,282.6,0.0
55643.0,STARLINK-5483,PAYLOAD,2023-02-24 08:00:01,15.91104973,0.0019818,70.0002,131.9354,172.6279,62.1437,-0.0033844,-0.01091209,0.00035196,0 STARLINK-5483,1 55643U 23021R   23055.33334491 -.01091209  35196-3 -33844-2 0  9991,2 55643  70.0002 131.9354 0019818 172.6279  62.1437 15.91104973  1566,6677.327,90.503,312.425,285.958,0.0
55643.0,STARLINK-5483,PAYLOAD,2023-02-24 14:00:01,15.90579686,0.0017615,69.9999,131.2104,175.5045,50.5697,-0.003513,-0.01098337,0.00035438,0 STARLINK-5483,1 55643U 23021R   23055.58334491 -.01098337  35438-3 -35130-2 0  9996,2 55643  69.9999 131.2104 0017615 175.5045  50.5697 15.90579686  1307,6678.797,90.533,312.426,288.897,0.0
55643.0,STARLINK-5483,PAYLOAD,2023-02-24 18:00:00,15.90212221,0.0016226,69.9997,130.7278,178.3293,281.6893,-0.003504,-0.01073109,0.00033827,0 STARLINK-5483,1 55643U 23021R   23055.75001157 -.01073109  33827-3 -35040-2 0  9995,2 55643  69.9997 130.7278 0016226 178.3293 281.6893 15.90212221  1634,6679.825,90.554,312.529,290.852,0.0
55643.0,STARLINK-5483,PAYLOAD,2023-02-24 22:00:00,15.89901123,0.0014358,69.9997,130.2446,182.0336,151.6951,-0.0038398,-0.0115387,0.00038563,0 STARLINK-5483,1 55643U 23021R   23055.91667824 -.01153870  38563-3 -38398-2 0  9997,2 55643  69.9997 130.2446 0014358 182.0336 151.6951 15.89901123  1309,6680.697,90.572,312.154,292.97,0.0
55643.0,STARLINK-5483,PAYLOAD,2023-02-25 02:00:01,15.89503273,0.0013252,70.0001,129.7623,185.5383,21.7225,-0.0036312,-0.01068718,0.0003334,0 STARLINK-5483,1 55643U 23021R   23056.08334491 -.01068718  33340-3 -36312-2 0  9995,2 55643  70.0001 129.7623 0013252 185.5383  21.7225 15.89503273  1686,6681.812,90.594,312.531,294.822,0.0
55643.0,STARLINK-5483,PAYLOAD,2023-02-25 08:00:01,15.88973265,0.0011278,69.9999,129.0391,193.5392,3.5967,-0.0037397,-0.0106948,0.00033213,0 STARLINK-5483,1 55643U 23021R   23056.33334491 -.01069480  33213-3 -37397-2 0  9993,2 55643  69.9999 129.0391 0011278 193.5392   3.5967 15.88973265  1726,6683.297,90.625,312.7,297.625,0.0
55643.0,STARLINK-5483,PAYLOAD,2023-02-25 14:00:01,15.88455292,0.0009853,69.9997,128.3166,203.9615,342.5659,-0.0039078,-0.01087508,0.00034086,0 STARLINK-5483,1 55643U 23021R   23056.58334491 -.01087508  34086-3 -39078-2 0  9998,2 55643  69.9997 128.3166 0009853 203.9615 342.5659 15.88455292  1769,6684.75,90.654,313.202,300.029,0.0
55643.0,STARLINK-5483,PAYLOAD,2023-02-25 22:00:00,15.87768265,0.0008553,69.9995,127.3535,221.7253,69.9193,-0.0042128,-0.01017067,0.0,0 STARLINK-5483,1 55643U 23021R   23056.91667824 -.01017067  00000-0 -42128-2 0  9993,2 55643  69.9995 127.3535 0008553 221.7253  69.9193 15.87768265  1813,6686.678,90.693,314.262,302.824,0.0
55643.0,STARLINK-5483,PAYLOAD,2023-02-26 06:00:00,15.87076236,0.0008655,69.9993,126.392,244.8928,151.019,-0.0044434,-0.0103452,0.0,0 STARLINK-5483,1 55643U 23021R   23057.25001157 -.01034520  00000-0 -44434-2 0  9997,2 55643  69.9993 126.3920 0008655 244.8928 151.0190 15.87076236  1872,6688.622,90.733,316.276,304.698,0.0
55643.0,STARLINK-5483,PAYLOAD,2023-02-26 14:00:01,15.86321594,0.0009067,69.9999,125.4317,260.2595,239.1,-0.0042591,-0.00963543,0.0,0 STARLINK-5483,1 55643U 23021R   23057.58334491 -.00963543  00000-0 -42591-2 0  9990,2 55643  69.9999 125.4317 0009067 260.2595 239.1000 15.86321594  1303,6690.743,90.776,318.675,306.542,0.0
55643.0,STARLINK-5483,PAYLOAD,2023-02-26 22:00:00,15.85622048,0.0008305,69.9995,124.4714,269.163,332.7743,-0.0044657,-0.00974283,0.0,0 STARLINK-5483,1 55643U 23021R   23057.91667824 -.00974283  00000-0 -44657-2 0  9994,2 55643  69.9995 124.4714 0008305 269.1630 332.7743 15.85622048  1975,6692.711,90.816,320.134,309.017,0.0
55643.0,STARLINK-5483,PAYLOAD,2023-02-27 14:00:01,15.84224498,0.0007666,69.9998,122.5552,271.9107,172.6383,-0.0049166,-0.00999023,0.0,0 STARLINK-5483,1 55643U 23021R   23058.58334491 -.00999023  00000-0 -49166-2 0  9998,2 55643  69.9998 122.5552 0007666 271.9107 172.6383 15.84224498  2086,6696.646,90.896,323.645,313.378,0.0
55643.0,STARLINK-5483,PAYLOAD,2023-02-27 22:00:01,15.83483615,0.0003736,70.0004,121.5983,278.4008,266.2657,-0.0048127,-0.00946532,0.0,0 STARLINK-5483,1 55643U 23021R   23058.91668981 -.00946532  00000-0 -48127-2 0  9992,2 55643  70.0004 121.5983 0003736 278.4008 266.2657 15.83483615  1305,6698.735,90.939,323.103,318.097,0.0
55643.0,STARLINK-5483,PAYLOAD,2023-02-28 14:00:01,15.82103857,0.000361,69.9998,119.6885,269.5161,112.6025,-0.0054147,-0.00992281,0.0,0 STARLINK-5483,1 55643U 23021R   23059.58334491 -.00992281  00000-0 -54147-2 0  9993,2 55643  69.9998 119.6885 0003610 269.5161 112.6025 15.82103857  1304,6702.629,91.018,326.914,322.074,0.0
55643.0,STARLINK-5483,PAYLOAD,2023-02-28 16:00:00,15.81913791,0.0003504,69.9999,119.4502,270.8228,225.7551,-0.0053504,-0.00973854,0.0,0 STARLINK-5483,1 55643U 23021R   23059.66667824 -.00973854  00000-0 -53504-2 0  9992,2 55643  69.9999 119.4502 0003504 270.8228 225.7551 15.81913791  2250,6703.166,91.029,327.38,322.682,0.0
55643.0,STARLINK-5483,PAYLOAD,2023-02-28 22:00:00,15.81410368,0.0003597,70.0001,118.7347,278.397,201.2108,-0.0057025,-0.01009578,0.0,0 STARLINK-5483,1 55643U 23021R   23059.91667824 -.01009578  00000-0 -57025-2 0  9996,2 55643  70.0001 118.7347 0003597 278.3970 201.2108 15.81410368  1309,6704.588,91.058,328.865,324.042,0.0
55643.0,STARLINK-5483,PAYLOAD,2023-03-01 14:00:01,15.79970177,0.0003635,70.0001,116.8303,267.7971,44.2711,-0.0058462,-0.00972602,0.0,0 STARLINK-5483,1 55643U 23021R   23060.58334491 -.00972602  00000-0 -58462-2 0  9994,2 55643  70.0001 116.8303 0003635 267.7971  44.2711 15.79970177  2397,6708.662,91.141,332.966,328.088,0.0
55643.0,STARLINK-5483,PAYLOAD,2023-03-01 22:00:00,15.79277399,0.0003653,69.9995,115.879,279.1926,127.8228,-0.006169,-0.00991975,0.0,0 STARLINK-5483,1 55643U 23021R   23060.91667824 -.00991975  00000-0 -61690-2 0  9991,2 55643  69.9995 115.8790 0003653 279.1926 127.8228 15.79277399  1309,6710.624,91.181,334.94,330.037,0.0
55643.0,STARLINK-5483,PAYLOAD,2023-03-02 06:00:00,15.7857752,0.0003525,70.0001,114.9297,276.2989,224.8184,-0.0064299,-0.01000436,0.0,0 STARLINK-5483,1 55643U 23021R   23061.25001157 -.01000436  00000-0 -64299-2 0  9992,2 55643  70.0001 114.9297 0003525 276.2989 224.8184 15.78577520  2507,6712.607,91.221,336.838,332.106,0.0
55643.0,STARLINK-5483,PAYLOAD,2023-03-02 20:00:01,15.77325944,0.0003443,69.9999,113.2699,270.4473,303.3223,-0.0066528,-0.00980676,0.0,0 STARLINK-5483,1 55643U 23021R   23061.83334491 -.00980676  00000-0 -66528-2 0  9995,2 55643  69.9999 113.2699 0003443 270.4473 303.3223 15.77325944  1305,6716.158,91.294,340.335,335.71,0.0
55643.0,STARLINK-5483,PAYLOAD,2023-03-03 12:00:00,15.7590807,0.0003669,70.0003,111.3772,279.6817,116.7916,-0.0070234,-0.00973087,0.0,0 STARLINK-5483,1 55643U 23021R   23062.50001157 -.00973087  00000-0 -70234-2 0  9997,2 55643  70.0003 111.3772 0003669 279.6817 116.7916 15.75908070  2703,6720.185,91.376,344.516,339.585,0.0
55643.0,STARLINK-5483,PAYLOAD,2023-03-03 14:00:01,15.75758118,0.0003537,69.9995,111.1404,274.77,234.29,-0.0073516,-0.01024315,0.0,0 STARLINK-5483,1 55643U 23021R   23062.58334491 -.01024315  00000-0 -73516-2 0  9993,2 55643  69.9995 111.1404 0003537 274.7700 234.2900 15.75758118  1301,6720.612,91.385,344.854,340.1,0.0
